[{"OBJECT_NAME":"OBJECT E","OBJECT_ID":"2024-174E","EPOCH":"2026-03-09T23:40:24.424320","MEAN_MOTION":15.26241811,"ECCENTRICITY":0.00122518,"INCLINATION":97.4515,"RA_OF_ASC_NODE":80.1669,"ARG_OF_PERICENTER":217.7524,"MEAN_ANOMALY":142.2856,"EPHEMERIS_TYPE":0,"CLASSIFICATION_TYPE":"U","NORAD_CAT_ID":61242,"ELEMENT_SET_NO":999,"REV_AT_EPOCH":8070,"BSTAR":0.00031155901,"MEAN_MOTION_DOT":8.013e-5,"MEAN_MOTION_DDOT":0},{"OBJECT_NAME":"STARLINK-33699","OBJECT_ID":"2025-057X","EPOCH":"2026-03-09T22:16:54.969600","MEAN_MOTION":15.27595076,"ECCENTRICITY":0.00011547,"INCLINATION":43.0037,"RA_OF_ASC_NODE":21.7339,"ARG_OF_PERICENTER":258.8037,"MEAN_ANOMALY":101.2685,"EPHEMERIS_TYPE":0,"CLASSIFICATION_TYPE":"U","NORAD_CAT_ID":63328,"ELEMENT_SET_NO":999,"REV_AT_EPOCH":5586,"BSTAR":0.001330796,"MEAN_MOTION_DOT":0.00036557,"MEAN_MOTION_DDOT":0}]
